OBJECT_NAME,OBJECT_ID,EPOCH,MEAN_MOTION,ECCENTRICITY,INCLINATION,RA_OF_ASC_NODE,ARG_OF_PERICENTER,MEAN_ANOMALY,EPHEMERIS_TYPE,CLASSIFICATION_TYPE,NORAD_CAT_ID,ELEMENT_SET_NO,REV_AT_EPOCH,BSTAR,MEAN_MOTION_DOT,MEAN_MOTION_DDOT
WORLDVIEW-3 (WV-3),2014-048A,2026-07-22T11:22:35.008320,14.85072035,.000182,97.8550,277.8178,144.7822,215.3513,0,U,40115,999,64714,.73427433E-4,.574E-5,0
GAOFEN-2,2014-049A,2026-07-22T15:34:28.051392,14.80932979,.00086363,98.0088,267.8192,113.9973,246.2145,0,U,40118,999,64448,.42406859E-4,.275E-5,0
BRITE-PL2 (HEWELIUSZ),2014-049B,2026-07-22T14:05:14.385120,14.94702812,.0013634,97.9122,315.8672,358.1835,1.9333,0,U,40119,999,64673,.15180654E-3,.159E-4,0
GSAT0201 (GALILEO 5),2014-050A,2026-07-21T21:53:14.723808,1.85519659,.16792967,48.8375,272.0101,180.7600,179.0021,0,U,40128,999,7896,0,-.55E-6,0
GSAT0202 (GALILEO 6),2014-050B,2026-07-21T15:04:54.669792,1.85520496,.16806659,48.8552,271.1079,181.4563,178.0378,0,U,40129,999,8112,0,-.55E-6,0
LING QIAO,2014-051A,2026-07-22T14:17:33.672768,14.30275713,.00220322,98.7076,205.4188,70.4009,289.9549,0,U,40136,999,62006,.54740299E-4,.98E-6,0
CHUANGXIN 1-04 (CX-1-04),2014-051B,2026-07-22T14:59:33.741312,14.30417314,.00235403,98.7075,205.4997,71.3075,289.0660,0,U,40137,999,61961,.68413631E-4,.134E-5,0
ASIASAT 6,2014-052A,2026-07-22T15:18:47.020608,1.00272392,.00011033,0.0672,265.4440,236.5206,148.0230,0,U,40141,999,4343,0,-.358E-5,0
YAOGAN-21,2014-053A,2026-07-22T14:57:25.926336,15.26833830,.00068501,97.1460,242.3447,341.0137,19.0846,0,U,40143,999,66036,.3584841E-3,.9391E-4,0
OPTUS 10,2014-054A,2026-07-22T12:16:38.465184,1.00272071,.00020222,0.0082,291.5154,185.0989,163.8053,0,U,40146,999,4338,0,-.143E-5,0
MEASAT-3B,2014-054B,2026-07-22T11:45:21.896064,1.00271302,.0002538,0.0248,21.7062,61.5104,124.8756,0,U,40147,999,4326,0,-.238E-5,0
SJ-11-07,2014-059A,2026-07-22T15:29:50.361792,14.63770892,.00116431,97.9923,271.8817,44.4375,315.7760,0,U,40261,999,63010,.14343047E-3,.702E-5,0
HIMAWARI-8,2014-060A,2026-07-22T12:31:38.501760,1.00270870,.00013508,0.0405,266.5202,250.3537,111.9513,0,U,40267,999,4311,0,-.272E-5,0
IRNSS-1C,2014-061A,2026-07-20T16:56:40.720704,1.00271443,.00219392,6.5999,88.2929,6.0783,181.3257,0,U,40269,999,4302,0,-.167E-5,0
INTELSAT 30 (IS-30),2014-062A,2026-07-22T13:22:42.993120,1.00270595,.00016116,0.0173,55.7632,343.7500,6.4155,0,U,40271,999,714,0,-.147E-5,0
ARSAT 1,2014-062B,2026-07-22T14:41:06.513216,1.00271906,.00020943,0.0491,275.3000,195.9859,337.5412,0,U,40272,999,4298,0,-.256E-5,0
YAOGAN-22,2014-063A,2026-07-22T07:42:37.178496,13.15531668,.00069,100.7772,355.1848,110.6743,249.5108,0,U,40275,999,56443,.50820909E-4,-.28E-6,0
EUTELSAT 53A,2014-064A,2026-07-22T14:59:41.352288,1.00268369,.000154,0.0149,20.7466,168.6499,28.9083,0,U,40277,999,4192,0,.102E-5,0
SJ-11-08,2014-066A,2026-07-22T14:31:41.320704,14.66208195,.00131745,98.3568,349.0741,117.9755,242.2783,0,U,40286,999,62640,.92350952E-4,.458E-5,0
NAVSTAR 72 (USA 258),2014-068A,2026-07-22T07:43:42.296448,2.00553794,.00674505,57.0119,29.6026,72.5356,288.2395,0,U,40294,999,8591,0,-.8E-6,0
MERIDIAN 7,2014-069A,2026-07-22T01:55:39.419040,2.00598519,.66356122,63.4508,211.9182,270.3334,19.8753,0,U,40296,999,8593,0,.298E-5,0
ASNARO,2014-070A,2026-07-22T15:38:40.594272,15.19458796,.00046793,97.3436,278.8104,70.7149,289.4591,0,U,40298,999,64939,.50970046E-3,.10751E-3,0
YAOGAN-24,2014-072A,2026-07-22T16:03:54.191808,14.76123680,.001519,98.1535,341.3116,146.4669,213.7504,0,U,40310,999,62895,.59366815E-4,.357E-5,0
COSMOS 2501 [GLONASS-K],2014-075A,2026-07-21T13:21:28.563840,2.13101380,.00225959,63.6189,189.1825,212.4587,147.4043,0,U,40315,999,9058,0,.9E-6,0
GSAT-16,2014-078A,2026-07-22T11:35:03.628896,1.00272597,.00076421,0.0127,76.7218,19.6439,72.6967,0,U,40332,999,4246,0,.88E-6,0
DIRECTV 14,2014-078B,2026-07-22T07:25:39.758016,1.00274896,.00006782,0.0120,51.8970,355.3666,264.9677,0,U,40333,999,4239,0,-.123E-5,0
CBERS 4,2014-079A,2026-07-22T14:02:31.892640,14.35517807,.00005636,98.3511,259.3026,76.6297,283.4952,0,U,40336,999,60903,.75065755E-4,.174E-5,0
YAOGAN-25 01A,2014-080A,2026-07-22T14:04:23.251872,13.45414162,.03697863,63.3851,219.5727,9.3008,351.4623,0,U,40338,999,57042,.2475809E-4,-.69E-6,0
YAOGAN-25 01B,2014-080B,2026-07-22T13:46:23.130912,13.45435537,.03700448,63.3859,219.7285,9.0943,351.6546,0,U,40339,999,57039,.50089774E-4,-.46E-6,0
YAOGAN-25 01C,2014-080C,2026-07-22T14:12:45.255744,13.45350261,.03699976,63.3844,220.0752,9.7717,351.0253,0,U,40340,999,57051,.2188643E-4,-.71E-6,0
YAMAL 401,2014-082A,2026-07-22T15:10:17.834304,1.00272889,.00008487,0.0311,210.8902,225.7216,181.2739,0,U,40345,999,4227,0,-.225E-5,0
O3B FM10,2014-083A,2026-07-20T17:47:05.079264,5.00115698,.00048859,0.0403,347.6090,113.4214,259.0216,0,U,40348,999,21157,0,-.24E-6,0
O3B FM11,2014-083B,2026-07-22T03:40:10.213536,5.00115591,.00025075,0.0552,350.5868,112.3886,257.0502,0,U,40349,999,21166,0,-.24E-6,0
O3B FM12,2014-083C,2026-07-21T23:31:11.050464,5.00115997,.00024814,0.0542,350.9258,127.1558,241.9410,0,U,40350,999,21166,0,-.24E-6,0
O3B FM9,2014-083D,2026-07-22T09:45:29.819232,5.00116107,.00026727,0.0559,349.6496,128.4105,241.9646,0,U,40351,999,21183,0,-.24E-6,0
COSMOS 2502,2014-086A,2026-07-22T15:10:05.563776,13.97827452,.00076528,67.1532,280.9575,250.9852,109.0405,0,U,40358,999,58890,.15578568E-3,.145E-5,0
YAOGAN-26,2014-088A,2026-07-22T14:54:15.255360,15.48659385,.0000978,97.0658,203.0357,270.2345,89.8794,0,U,40362,999,64318,.21296529E-3,.11301E-3,0
ASTRA 2G,2014-089A,2026-07-22T11:27:11.883168,1.00272669,.00045964,0.0627,41.2406,38.1676,60.7786,0,U,40364,999,4232,0,.153E-5,0
FENGYUN 2G,2014-090A,2026-07-22T15:12:55.083168,1.00278507,.00036961,5.7264,72.3849,171.6646,24.0860,0,U,40367,999,4235,0,-.304E-5,0
MUOS-3,2015-002A,2026-07-22T07:49:37.460928,1.00273129,.00540822,4.5865,43.6470,177.0539,181.2793,0,U,40374,999,4193,0,-.129E-5,0
SMAP,2015-003A,2026-07-22T13:36:17.083296,14.63393432,.00016351,98.1287,210.1621,92.5937,267.5452,0,U,40376,999,61279,.66541915E-4,.297E-5,0
INMARSAT 5-F2,2015-005A,2026-07-22T11:03:36.645120,1.00272713,.00007317,0.0181,59.9804,59.8990,291.2352,0,U,40384,999,4134,0,-.282E-5,0
COSMOS 2503,2015-009A,2026-07-22T03:09:36.797760,15.06683068,.00172899,97.8282,260.4255,130.3557,229.9182,0,U,40420,999,62419,.62099589E-4,.859E-5,0
ABS-3A,2015-010A,2026-07-22T01:49:38.564256,1.00270166,.00014608,0.0125,56.9793,27.0448,240.2551,0,U,40424,999,4172,0,-.24E-6,0
EUTELSAT 115 WEST B,2015-010B,2026-07-22T11:40:38.727840,1.00275060,.00002692,0.0035,118.7900,235.2473,6.4545,0,U,40425,999,4173,0,-.22E-6,0
MMS 1,2015-011A,2026-07-22T16:00:01.999584,0.28358585,.83018585,72.5709,348.3769,168.1778,317.7394,0,U,40482,999,138,0,-.1491E-4,0
MMS 2,2015-011B,2026-07-22T16:00:01.999584,0.28358399,.83046845,72.5750,348.3759,168.1809,317.7258,0,U,40483,999,138,0,-.1492E-4,0
MMS 3,2015-011C,2026-07-22T16:00:01.999584,0.28358381,.8303052,72.5747,348.3878,168.1886,317.6999,0,U,40484,999,135,0,-.149E-4,0
MMS 4,2015-011D,2026-07-22T16:00:01.999584,0.28358428,.83030086,72.5702,348.3713,168.1985,317.6962,0,U,40485,999,138,0,-.1491E-4,0
EXPRESS-AM7,2015-012A,2026-07-22T11:30:34.060032,1.00277337,.00030676,0.0126,355.1630,136.1008,21.6123,0,U,40505,999,4136,0,.154E-5,0
NAVSTAR 73 (USA 260),2015-013A,2026-07-20T23:12:44.735616,2.00574219,.01103224,53.1254,202.7533,40.4930,320.3352,0,U,40534,999,8250,0,.74E-6,0
KOMPSAT-3A,2015-014A,2026-07-22T13:45:05.111712,15.55777731,.00551236,97.6901,197.5723,49.5579,311.0462,0,U,40536,999,62731,.44684748E-3,.32981E-3,0
GSAT0203 (GALILEO 7),2015-017A,2026-07-21T05:37:49.022688,1.70476352,.00028415,56.7744,340.6686,253.2571,106.7061,0,U,40544,999,6978,0,-.108E-5,0
GSAT0204 (GALILEO 8),2015-017B,2026-07-20T07:36:55.747296,1.70475832,.0002939,56.7823,340.7123,234.3577,125.6085,0,U,40545,999,3281,0,-.108E-5,0
BEIDOU-3S IGSO-1S,2015-019A,2026-07-13T14:57:15.384672,1.00301762,.00386582,49.1434,295.1438,197.4315,114.4487,0,U,40549,999,4133,0,-.169E-5,0
GONETS-M 11,2015-020A,2026-07-22T14:07:07.176000,12.42878704,.00152638,82.4878,8.9279,286.0531,73.8867,0,U,40552,999,51313,.61246338E-4,.18E-6,0
GONETS-M 12,2015-020B,2026-07-22T13:28:24.229920,12.42892046,.00142197,82.4911,10.0777,269.7742,90.1708,0,U,40553,999,51312,.69039222E-4,.19E-6,0
GONETS-M 13,2015-020C,2026-07-22T14:46:58.943136,12.42871938,.00128662,82.4873,8.6485,253.3470,106.6197,0,U,40554,999,51310,.17654923E-3,.34E-6,0
COSMOS 2504,2015-020D,2026-07-22T14:42:23.466240,13.61396339,.06076662,82.5153,203.9121,177.8779,182.5185,0,U,40555,999,55501,.23164216E-4,.82E-6,0
THOR 7,2015-022A,2026-07-22T07:53:52.054944,1.00270907,.00027998,0.0058,226.3383,251.0531,300.4937,0,U,40613,999,4116,0,-.5E-7,0
TURKMENALEM52E/MONACOSAT,2015-023A,2026-07-22T11:34:03.725184,1.00275293,.0002918,0.0140,80.8977,43.1083,41.7732,0,U,40617,999,4120,0,.107E-5,0
DIRECTV 15,2015-026A,2026-07-22T10:50:00.447648,1.00274904,.00006697,0.0213,79.4820,295.6184,344.7143,0,U,40663,999,4081,0,-.99E-6,0
SKY MEXICO-1,2015-026B,2026-07-22T10:56:52.289664,1.00270581,.00027094,0.0162,311.1102,183.6480,250.8562,0,U,40664,999,4080,0,-.231E-5,0
SENTINEL-2A,2015-028A,2026-07-22T14:23:01.658400,14.30817198,.00013429,98.5669,277.9461,96.2575,263.8761,0,U,40697,999,57879,.17852E-3,.424E-5,0
COSMOS 2506,2015-029A,2026-07-22T14:25:27.148224,14.54397233,.0008369,98.0449,243.0834,52.2593,307.9361,0,U,40699,999,58803,.71071427E-4,.259E-5,0
GAOFEN-8,2015-030A,2026-07-22T14:36:12.868128,15.47164267,.00096912,97.6905,39.1354,73.2799,286.9513,0,U,40701,999,61692,.67597866E-3,.34386E-3,0
DMC3-FM1,2015-032A,2026-07-22T13:30:12.547008,14.85770315,.00042873,97.6419,67.3423,308.4081,51.6750,0,U,40715,999,59516,.11523868E-4,.49E-6,0
DMC3-FM2,2015-032B,2026-07-22T14:01:44.991264,14.85779367,.0004863,97.6472,68.9611,314.5513,45.5305,0,U,40716,999,59516,.87405602E-4,.708E-5,0
DMC3-FM3,2015-032C,2026-07-22T14:35:42.499392,14.85769671,.00040749,97.6525,70.7592,317.4946,42.5954,0,U,40717,999,59517,.85783886E-4,.694E-5,0
